start=new Date('2022-01-04T00:00:00.000Z').valueOf();
sats=[{"MEAN_ELEMENT_THEORY":"SGP4","EPOCH":"2022-01-03T19:32:55.193280","PERIOD":"95.593","SEMIMAJOR_AXIS":"6925.373","OBJECT_TYPE":"PAYLOAD","CENTER_NAME":"EARTH","REF_FRAME":"TEME","RA_OF_ASC_NODE":"226.5460","TLE_LINE1":"1 47730U 21017J   22003.81452770 -.00000195  00000-0  58120-5 0  9990","APOAPSIS":"548.641","NORAD_CAT_ID":"47730","MEAN_MOTION":"15.06391973","TIME_SYSTEM":"UTC","OBJECT_NAME":"STARLINK-2140","COUNTRY_CODE":"US","LAUNCH_DATE":"2021-03-04","DECAY_DATE":null,"OBJECT_ID":"2021-017J","TLE_LINE2":"2 47730  53.0540 226.5460 0002025  69.4669 290.6537 15.06391973 47674","BSTAR":"0.00000581200000","ECCENTRICITY":"0.00020250","PERIAPSIS":"545.836","RCS_SIZE":"LARGE","EPHEMERIS_TYPE":"0","FILE":"3256498","ARG_OF_PERICENTER":"69.4669","SITE":"AFETR","REV_AT_EPOCH":"4767","INCLINATION":"53.0540","GP_ID":"193017852","MEAN_MOTION_DOT":"-0.00000195","CLASSIFICATION_TYPE":"U","MEAN_ANOMALY":"290.6537","ELEMENT_SET_NO":"999","MEAN_MOTION_DDOT":"0.0000000000000"},{"BSTAR":"-0.00001173300000","ECCENTRICITY":"0.00022290","OBJECT_ID":"2021-017K","TLE_LINE2":"2 47731  53.0549 221.5140 0002229  65.3333 294.7888 15.06394777 47751","ARG_OF_PERICENTER":"65.3333","INCLINATION":"53.0549","SITE":"AFETR","REV_AT_EPOCH":"4775","MEAN_MOTION_DOT":"-0.00000457","GP_ID":"193017602","CLASSIFICATION_TYPE":"U","MEAN_ANOMALY":"294.7888","ELEMENT_SET_NO":"999","MEAN_MOTION_DDOT":"0.0000000000000","PERIAPSIS":"545.686","EPHEMERIS_TYPE":"0","RCS_SIZE":"LARGE","FILE":"3256498","CENTER_NAME":"EARTH","REF_FRAME":"TEME","RA_OF_ASC_NODE":"221.5140","TLE_LINE1":"1 47731U 21017K   22003.82145919 -.00000457  00000-0 -11733-4 0  9996","MEAN_ELEMENT_THEORY":"SGP4","EPOCH":"2022-01-03T19:42:54.074016","PERIOD":"95.592","SEMIMAJOR_AXIS":"6925.365","OBJECT_TYPE":"PAYLOAD","COUNTRY_CODE":"US","LAUNCH_DATE":"2021-03-04","DECAY_DATE":null,"APOAPSIS":"548.773","NORAD_CAT_ID":"47731","MEAN_MOTION":"15.06394777","TIME_SYSTEM":"UTC","OBJECT_NAME":"STARLINK-2141"},{"ECCENTRICITY":"0.00024140","BSTAR":"-0.00000033877000","TLE_LINE2":"2 47732  53.0547 137.3188 0002414 119.6202 240.5028 15.06395646 48910","OBJECT_ID":"2021-017L","MEAN_MOTION_DDOT":"0.0000000000000","ELEMENT_SET_NO":"999","MEAN_ANOMALY":"240.5028","GP_ID":"193016355","MEAN_MOTION_DOT":"-0.00000287","CLASSIFICATION_TYPE":"U","SITE":"AFETR","REV_AT_EPOCH":"4891","INCLINATION":"53.0547","ARG_OF_PERICENTER":"119.6202","FILE":"3256498","EPHEMERIS_TYPE":"0","RCS_SIZE":"LARGE","PERIAPSIS":"545.555","TLE_LINE1":"1 47732U 21017L   22003.63851651 -.00000287  00000-0 -33877-6 0  9999","RA_OF_ASC_NODE":"137.3188","REF_FRAME":"TEME","CENTER_NAME":"EARTH","OBJECT_TYPE":"PAYLOAD","SEMIMAJOR_AXIS":"6925.362","PERIOD":"95.592","EPOCH":"2022-01-03T15:19:27.826464","MEAN_ELEMENT_THEORY":"SGP4","DECAY_DATE":null,"LAUNCH_DATE":"2021-03-04","COUNTRY_CODE":"US","TIME_SYSTEM":"UTC","OBJECT_NAME":"STARLINK-2142","MEAN_MOTION":"15.06395646","APOAPSIS":"548.899","NORAD_CAT_ID":"47732"},{"TLE_LINE1":"1 47733U 21017M   22003.80947787  .00003097  00000-0  22672-3 0  9993","RA_OF_ASC_NODE":"231.5793","CENTER_NAME":"EARTH","REF_FRAME":"TEME","SEMIMAJOR_AXIS":"6925.332","OBJECT_TYPE":"PAYLOAD","EPOCH":"2022-01-03T19:25:38.887968","MEAN_ELEMENT_THEORY":"SGP4","PERIOD":"95.592","LAUNCH_DATE":"2021-03-04","DECAY_DATE":null,"COUNTRY_CODE":"US","TIME_SYSTEM":"UTC","OBJECT_NAME":"STARLINK-2143","MEAN_MOTION":"15.06405464","APOAPSIS":"548.625","NORAD_CAT_ID":"47733","BSTAR":"0.00022672000000","ECCENTRICITY":"0.00020620","TLE_LINE2":"2 47733  53.0469 231.5793 0002062  62.3543 297.7655 15.06405464 47654","OBJECT_ID":"2021-017M","ELEMENT_SET_NO":"999","MEAN_ANOMALY":"297.7655","MEAN_MOTION_DDOT":"0.0000000000000","SITE":"AFETR","REV_AT_EPOCH":"4765","INCLINATION":"53.0469","ARG_OF_PERICENTER":"62.3543","CLASSIFICATION_TYPE":"U","GP_ID":"193017101","MEAN_MOTION_DOT":"0.00003097","FILE":"3256498","PERIAPSIS":"545.769","RCS_SIZE":"LARGE","EPHEMERIS_TYPE":"0"},{"REF_FRAME":"TEME","CENTER_NAME":"EARTH","TLE_LINE1":"1 47734U 21017N   22003.03267340  .00001189  00000-0  98753-4 0  9993","RA_OF_ASC_NODE":"225.0535","PERIOD":"95.592","EPOCH":"2022-01-03T00:47:02.981760","MEAN_ELEMENT_THEORY":"SGP4","OBJECT_TYPE":"PAYLOAD","SEMIMAJOR_AXIS":"6925.361","COUNTRY_CODE":"US","DECAY_DATE":null,"LAUNCH_DATE":"2021-03-04","MEAN_MOTION":"15.06395901","APOAPSIS":"548.694","NORAD_CAT_ID":"47734","OBJECT_NAME":"STARLINK-2144","TIME_SYSTEM":"UTC","ECCENTRICITY":"0.00021200","BSTAR":"0.00009875300000","TLE_LINE2":"2 47734  53.0552 225.0535 0002120  62.6444 297.4761 15.06395901 46993","OBJECT_ID":"2021-017N","GP_ID":"192972354","MEAN_MOTION_DOT":"0.00001189","CLASSIFICATION_TYPE":"U","SITE":"AFETR","REV_AT_EPOCH":"4699","INCLINATION":"53.0552","ARG_OF_PERICENTER":"62.6444","MEAN_MOTION_DDOT":"0.0000000000000","ELEMENT_SET_NO":"999","MEAN_ANOMALY":"297.4761","EPHEMERIS_TYPE":"0","RCS_SIZE":"LARGE","PERIAPSIS":"545.758","FILE":"3255255"},{"OBJECT_ID":"2021-017P","TLE_LINE2":"2 47735  53.0552 146.7527 0001901  96.2469 263.8736 15.06409222 48780","ECCENTRICITY":"0.00019010","BSTAR":"-0.00010497000000","RCS_SIZE":"LARGE","EPHEMERIS_TYPE":"0","PERIAPSIS":"545.869","FILE":"3256498","GP_ID":"193018098","CLASSIFICATION_TYPE":"U","MEAN_MOTION_DOT":"-0.00001845","ARG_OF_PERICENTER":"96.2469","SITE":"AFETR","REV_AT_EPOCH":"4878","INCLINATION":"53.0552","MEAN_MOTION_DDOT":"0.0000000000000","MEAN_ANOMALY":"263.8736","ELEMENT_SET_NO":"999","PERIOD":"95.592","MEAN_ELEMENT_THEORY":"SGP4","EPOCH":"2022-01-03T18:18:35.710848","OBJECT_TYPE":"PAYLOAD","SEMIMAJOR_AXIS":"6925.320","REF_FRAME":"TEME","CENTER_NAME":"EARTH","RA_OF_ASC_NODE":"146.7527","TLE_LINE1":"1 47735U 21017P   22003.76291332 -.00001845  00000-0 -10497-3 0  9991","APOAPSIS":"548.502","NORAD_CAT_ID":"47735","MEAN_MOTION":"15.06409222","TIME_SYSTEM":"UTC","OBJECT_NAME":"STARLINK-2146","COUNTRY_CODE":"US","DECAY_DATE":null,"LAUNCH_DATE":"2021-03-04"},{"OBJECT_NAME":"STARLINK-2147","TIME_SYSTEM":"UTC","MEAN_MOTION":"15.06399116","APOAPSIS":"548.479","NORAD_CAT_ID":"47736","LAUNCH_DATE":"2021-03-04","DECAY_DATE":null,"COUNTRY_CODE":"US","SEMIMAJOR_AXIS":"6925.351","OBJECT_TYPE":"PAYLOAD","EPOCH":"2022-01-03T09:33:51.453216","MEAN_ELEMENT_THEORY":"SGP4","PERIOD":"95.592","TLE_LINE1":"1 47736U 21017Q   22003.39851219  .00000964  00000-0  83645-4 0  9992","RA_OF_ASC_NODE":"213.4106","CENTER_NAME":"EARTH","REF_FRAME":"TEME","FILE":"3255250","PERIAPSIS":"545.954","EPHEMERIS_TYPE":"0","RCS_SIZE":"LARGE","ELEMENT_SET_NO":"999","MEAN_ANOMALY":"293.2102","MEAN_MOTION_DDOT":"0.0000000000000","SITE":"AFETR","INCLINATION":"53.0545","REV_AT_EPOCH":"4787","ARG_OF_PERICENTER":"66.9079","GP_ID":"192969143","MEAN_MOTION_DOT":"0.00000964","CLASSIFICATION_TYPE":"U","TLE_LINE2":"2 47736  53.0545 213.4106 0001823  66.9079 293.2102 15.06399116 47875","OBJECT_ID":"2021-017Q","BSTAR":"0.00008364500000","ECCENTRICITY":"0.00018230"},{"GP_ID":"193016606","CLASSIFICATION_TYPE":"U","MEAN_MOTION_DOT":"0.00001179","ARG_OF_PERICENTER":"94.9977","SITE":"AFETR","REV_AT_EPOCH":"4882","INCLINATION":"53.0546","MEAN_MOTION_DDOT":"0.0000000000000","MEAN_ANOMALY":"265.1274","ELEMENT_SET_NO":"999","EPHEMERIS_TYPE":"0","RCS_SIZE":"LARGE","PERIAPSIS":"545.620","FILE":"3256498","ECCENTRICITY":"0.00023000","BSTAR":"0.00009802300000","OBJECT_ID":"2021-017R","TLE_LINE2":"2 47737  53.0546 147.1349 0002300  94.9977 265.1274 15.06400210 48820","COUNTRY_CODE":"US","DECAY_DATE":null,"LAUNCH_DATE":"2021-03-04","APOAPSIS":"548.806","NORAD_CAT_ID":"47737","MEAN_MOTION":"15.06400210","TIME_SYSTEM":"UTC","OBJECT_NAME":"STARLINK-2148","REF_FRAME":"TEME","CENTER_NAME":"EARTH","RA_OF_ASC_NODE":"147.1349","TLE_LINE1":"1 47737U 21017R   22003.67908117  .00001179  00000-0  98023-4 0  9999","PERIOD":"95.592","MEAN_ELEMENT_THEORY":"SGP4","EPOCH":"2022-01-03T16:17:52.613088","OBJECT_TYPE":"PAYLOAD","SEMIMAJOR_AXIS":"6925.348"},{"LAUNCH_DATE":"2021-03-04","DECAY_DATE":null,"COUNTRY_CODE":"US","TIME_SYSTEM":"UTC","OBJECT_NAME":"STARLINK-2149","MEAN_MOTION":"15.06391359","NORAD_CAT_ID":"47738","APOAPSIS":"551.658","TLE_LINE1":"1 47738U 21017S   22003.81133569 -.00000784  00000-0 -33595-4 0  9993","RA_OF_ASC_NODE":"211.5606","CENTER_NAME":"EARTH","REF_FRAME":"TEME","SEMIMAJOR_AXIS":"6925.375","OBJECT_TYPE":"PAYLOAD","EPOCH":"2022-01-03T19:28:19.403616","MEAN_ELEMENT_THEORY":"SGP4","PERIOD":"95.593","ELEMENT_SET_NO":"999","MEAN_ANOMALY":"255.7940","MEAN_MOTION_DDOT":"0.0000000000000","INCLINATION":"53.0540","SITE":"AFETR","REV_AT_EPOCH":"4793","ARG_OF_PERICENTER":"104.3757","MEAN_MOTION_DOT":"-0.00000784","GP_ID":"193017853","CLASSIFICATION_TYPE":"U","FILE":"3256498","PERIAPSIS":"542.822","EPHEMERIS_TYPE":"0","RCS_SIZE":"LARGE","BSTAR":"-0.00003359500000","ECCENTRICITY":"0.00063800","TLE_LINE2":"2 47738  53.0540 211.5606 0006380 104.3757 255.7940 15.06391359 47930","OBJECT_ID":"2021-017S"},{"OBJECT_ID":"2021-017T","TLE_LINE2":"2 47739  53.0530 236.0464 0001935  66.3027 293.8165 15.06398116 47606","ECCENTRICITY":"0.00019350","BSTAR":"0.00002507600000","FILE":"3256498","RCS_SIZE":"LARGE","EPHEMERIS_TYPE":"0","PERIAPSIS":"545.879","MEAN_MOTION_DDOT":"0.0000000000000","MEAN_ANOMALY":"293.8165","ELEMENT_SET_NO":"999","GP_ID":"193017603","MEAN_MOTION_DOT":"0.00000092","CLASSIFICATION_TYPE":"U","ARG_OF_PERICENTER":"66.3027","INCLINATION":"53.0530","SITE":"AFETR","REV_AT_EPOCH":"4760","OBJECT_TYPE":"PAYLOAD","SEMIMAJOR_AXIS":"6925.354","PERIOD":"95.592","MEAN_ELEMENT_THEORY":"SGP4","EPOCH":"2022-01-03T22:12:11.147328","RA_OF_ASC_NODE":"236.0464","TLE_LINE1":"1 47739U 21017T   22003.92512902  .00000092  00000-0  25076-4 0  9993","REF_FRAME":"TEME","CENTER_NAME":"EARTH","TIME_SYSTEM":"UTC","OBJECT_NAME":"STARLINK-2150","APOAPSIS":"548.559","NORAD_CAT_ID":"47739","MEAN_MOTION":"15.06398116","DECAY_DATE":null,"LAUNCH_DATE":"2021-03-04","COUNTRY_CODE":"US"}];
